{"fetched_at":"2026-03-29T02:12:04Z","count":15717,"tles":[{"name":"STARLINK-6132","line1":"1 57101U 23090A   26087.60066564  .00000736  00000+0  69567-4 0  9996","line2":"2 57101  43.0034 172.2780 0001562 272.1490  87.9173 15.02533277153252","category":"Starlink"}]}