{
  "norad_id": 57101,
  "name": "STARLINK-6132",
  "history": [
    {
      "epoch": "2026-03-28T14:24:57.511296Z",
      "apogee_km": 560.1722030592691,
      "perigee_km": 558.0036265509016,
      "latitude_deg": -2.274587169693838e-05,
      "longitude_deg": 130.01956646417037,
      "height_km": 558.8269557362343,
      "semi_major_axis_km": 6937.224914805085,
      "eccentricity": 0.0001563,
      "inclination_deg": 43.0034,
      "raan_deg": 172.278,
      "arg_perigee_deg": 272.149,
      "mean_anomaly_deg": 87.9173,
      "mean_motion_rev_day": 15.02533277
    }
  ]
}